{
  "type": "FeatureCollection",
  "features": [
    {
      "type": "Feature",
      "properties": {
        "name": "English Speaking Countries"
      },
      "geometry": {
        "type": "MultiPolygon",
        "coordinates": [
          [
            [
              [-125.0, 24.396308],
              [-66.93457, 24.396308],
              [-66.93457, 49.384358],
              [-125.0, 49.384358],
              [-125.0, 24.396308]
            ]
          ],
          [
            [
              [-8.0, 49.0],
              [2.0, 49.0],
              [2.0, 60.0],
              [-8.0, 60.0],
              [-8.0, 49.0]
            ]
          ],
          [
            [
              [-141.0, 41.675105],
              [-52.648098, 41.675105],
              [-52.648098, 83.113884],
              [-141.0, 83.113884],
              [-141.0, 41.675105]
            ]
          ],
          [
            [
              [113.0, -44.0],
              [154.0, -44.0],
              [154.0, -10.0],
              [113.0, -10.0],
              [113.0, -44.0]
            ]
          ],
          [
            [
              [166.0, -47.0],
              [179.0, -47.0],
              [179.0, -34.0],
              [166.0, -34.0],
              [166.0, -47.0]
            ]
          ],
          [
            [
              [-10.0, 51.0],
              [-5.0, 51.0],
              [-5.0, 56.0],
              [-10.0, 56.0],
              [-10.0, 51.0]
            ]
          ],
          [
            [
              [16.0, -35.0],
              [33.0, -35.0],
              [33.0, -22.0],
              [16.0, -22.0],
              [16.0, -35.0]
            ]
          ],
          [
            [
              [68.0, 6.0],
              [97.0, 6.0],
              [97.0, 37.0],
              [68.0, 37.0],
              [68.0, 6.0]
            ]
          ],
          [
            [
              [103.0, 1.0],
              [107.0, 1.0],
              [107.0, 11.0],
              [103.0, 11.0],
              [103.0, 1.0]
            ]
          ],
          [
            [
              [122.0, 5.0],
              [126.0, 5.0],
              [126.0, 21.0],
              [122.0, 21.0],
              [122.0, 5.0]
            ]
          ],
          [
            [
              [60.0, 24.0],
              [77.0, 24.0],
              [77.0, 37.0],
              [60.0, 37.0],
              [60.0, 24.0]
            ]
          ],
          [
            [
              [34.0, -35.0],
              [42.0, -35.0],
              [42.0, -22.0],
              [34.0, -22.0],
              [34.0, -35.0]
            ]
          ],
          [
            [
              [68.0, 5.0],
              [78.0, 5.0],
              [78.0, 13.0],
              [68.0, 13.0],
              [68.0, 5.0]
            ]
          ],
          [
            [
              [31.0, -29.0],
              [34.0, -29.0],
              [34.0, -22.0],
              [31.0, -22.0],
              [31.0, -29.0]
            ]
          ],
          [
            [
              [30.0, -20.0],
              [35.0, -20.0],
              [35.0, -10.0],
              [30.0, -10.0],
              [30.0, -20.0]
            ]
          ],
          [
            [
              [77.0, 12.0],
              [85.0, 12.0],
              [85.0, 20.0],
              [77.0, 20.0],
              [77.0, 12.0]
            ]
          ],
          [
            [
              [120.0, 5.0],
              [130.0, 5.0],
              [130.0, 15.0],
              [120.0, 15.0],
              [120.0, 5.0]
            ]
          ],
          [
            [
              [32.0, -25.0],
              [36.0, -25.0],
              [36.0, -15.0],
              [32.0, -15.0],
              [32.0, -25.0]
            ]
          ],
          [
            [
              [72.0, 12.0],
              [78.0, 12.0],
              [78.0, 18.0],
              [72.0, 18.0],
              [72.0, 12.0]
            ]
          ],
          [
            [
              [72.0, 10.0],
              [76.0, 10.0],
              [76.0, 14.0],
              [72.0, 14.0],
              [72.0, 10.0]
            ]
          ],
          [
            [
              [72.0, 5.0],
              [76.0, 5.0],
              [76.0, 9.0],
              [72.0, 9.0],
              [72.0, 5.0]
            ]
          ]
        ]
      }
    }
  ]
}
